[
    {
        "Altitude(m)": 624790.8101810486,
        "Argument of Periapsis(deg)": 0.0,
        "Eccentricity": 0.0,
        "Inclination(deg)": 60.0,
        "Latitude(deg)": -59.147161426867235,
        "Longitude(deg)": -3.9652081738021345,
        "Mean Anomaly(deg)": -81.8182,
        "RAAN(deg)": 170.00000000000003,
        "Satellite Name": "Test1 765",
        "Satellite Number": 765,
        "Semi-Major Axis(m)": 6980739.136638005,
        "Time(s)": 0
    },
    {
        "Altitude(m)": 624737.4645706948,
        "Argument of Periapsis(deg)": 0.00010418945913296404,
        "Eccentricity": 0.0,
        "Inclination(deg)": 60.0,
        "Latitude(deg)": -58.99461438702321,
        "Longitude(deg)": -2.845705807331405,
        "Mean Anomaly(deg)": -81.19809385453816,
        "RAAN(deg)": 169.99957995086027,
        "Satellite Name": "Test1 765",
        "Satellite Number": 765,
        "Semi-Major Axis(m)": 6980739.136638005,
        "Time(s)": 10
    }
]